CCSDS_OEM_VERS = 1.0
CREATION_DATE  = 2017-10-26T16:38:14
ORIGINATOR     = GMAT USER

META_START
OBJECT_NAME          = DefaultSC
OBJECT_ID            = SatId
CENTER_NAME          = Earth
REF_FRAME            = ICRF
TIME_SYSTEM          = UTC
START_TIME           = 2000-01-01T11:59:28.000
USEABLE_START_TIME   = 2000-01-01T11:59:28.000
USEABLE_STOP_TIME    = 2000-01-01T15:19:28.000
STOP_TIME            = 2000-01-01T15:19:28.000
INTERPOLATION        = Lagrange
INTERPOLATION_DEGREE = 7 
META_STOP

2000-01-01T14:30:40.691  -7.019022559600290e+003   7.778952108248427e+002  -1.192191696500187e+003  -4.485744337218963e-001  -7.385096517191810e+000  -1.072156921210346e+000
2000-01-01T14:32:19.806  -7.025891804843498e+003   4.307223246273437e+001  -1.291880391761261e+003   3.110445151951172e-001  -7.429444589085411e+000  -9.374538208787310e-001
2000-01-01T14:33:58.530  -6.957704628091732e+003  -6.893152023134099e+002  -1.377344840876796e+003   1.070026542369535e+000  -7.394316753067980e+000  -7.921960984789989e-001
2000-01-01T14:35:36.872  -6.815510125064163e+003  -1.411507665326107e+003  -1.447737486357396e+003   1.820133429470621e+000  -7.279853323506502e+000  -6.379320189715462e-001
2000-01-01T14:37:14.843  -6.601130139880777e+003  -2.115920581476444e+003  -1.502377732578123e+003   2.553178683622547e+000  -7.087077328439385e+000  -4.763191381625545e-001
2000-01-01T14:38:52.461  -6.317126157238171e+003  -2.795221984366089e+003  -1.540756278550074e+003   3.261124987290919e+000  -6.817891224060342e+000  -3.091057130884626e-001
2000-01-01T14:40:29.742  -5.966763360880888e+003  -3.442397128696173e+003  -1.562537153774124e+003   3.936173308144580e+000  -6.475065918806130e+000  -1.381126111897004e-001
2000-01-01T14:42:06.711  -5.553966975777570e+003  -4.050817263711705e+003  -1.567558869878076e+003   4.570860716968607e+000  -6.062216741606486e+000   3.478815568357391e-002
2000-01-01T14:43:43.392  -5.083265148216697e+003  -4.614309934742246e+003  -1.555833270399131e+003   5.158163037986088e+000  -5.583759130688452e+000   2.076985191347444e-001
2000-01-01T14:45:19.816  -4.559732187384513e+003  -5.127209109411828e+003  -1.527541732423782e+003   5.691578282218566e+000  -5.044857171475789e+000   3.787168443628060e-001
2000-01-01T14:46:56.012  -3.988953477635268e+003  -5.584381374269216e+003  -1.483032165689068e+003   6.165185689294657e+000  -4.451387633405621e+000   5.459538254171805e-001
2000-01-01T14:48:32.012  -3.376946659481630e+003  -5.981290531896078e+003  -1.422813041831769e+003   6.573743869306457e+000  -3.809852064129752e+000   7.075625797140687e-001
2000-01-01T14:50:07.854  -2.730091431711350e+003  -6.314032209759355e+003  -1.347544993276933e+003   6.912755172865153e+000  -3.127290128254764e+000   8.617623094111165e-001
2000-01-01T14:51:43.574  -2.055095835843985e+003  -6.579345366164617e+003  -1.258036066884594e+003   7.178502834223113e+000  -2.411225404779099e+000   1.006852561211048e+000
2000-01-01T14:53:19.209  -1.358897522810233e+003  -6.774653362053626e+003  -1.155228884138420e+003   7.368113492205548e+000  -1.669537386549822e+000   1.141242055481571e+000
2000-01-01T14:54:54.798  -6.486304473453832e+002  -6.898067922412232e+003  -1.040194944470622e+003   7.479576283094547e+000  -9.103983778787760e-001   1.263460764743268e+000
2000-01-01T14:56:30.381   6.846330780589911e+001  -6.948409008862797e+003  -9.141208891146798e+002   7.511771325647248e+000  -1.421492312502313e-001   1.372181902019891e+000
2000-01-01T14:58:05.997   7.850809477803706e+002  -6.925208073559695e+003  -7.783000847764332e+002   7.464475029723933e+000   6.267831106837734e-001   1.466234002976139e+000
2000-01-01T14:59:41.685   1.493933236727517e+003  -6.828711923795080e+003  -6.341193109647775e+002   7.338358656080582e+000   1.387996917444192e+000   1.544615599622564e+000
2000-01-01T15:01:17.484   2.187799194383715e+003  -6.659881180122502e+003  -4.830483456955388e+002   7.134975248686740e+000   2.133204792023821e+000   1.606504756373580e+000
2000-01-01T15:02:53.431   2.859612100062691e+003  -6.420376979356430e+003  -3.266221788344569e+002   6.856727014597970e+000   2.854353849234858e+000   1.651269116824072e+000
2000-01-01T15:04:29.560   3.502483850090964e+003  -6.112559713329151e+003  -1.664362487085469e+002   6.506842365866409e+000   3.543675959126843e+000   1.678468381357899e+000
2000-01-01T15:06:05.907   4.109797675048947e+003  -5.739465191441578e+003  -4.125999128528651e+000   6.089322238538753e+000   4.193806674660284e+000   1.687860254195510e+000
2000-01-01T15:07:42.502   4.675271747255081e+003  -5.304775406162166e+003   1.586488933792246e+002   5.608878463738805e+000   4.797867263554273e+000   1.679399969695596e+000
2000-01-01T15:09:19.376   5.192995219450169e+003  -4.812806829478434e+003   3.202128458995214e+002   5.070889705249213e+000   5.349511179501947e+000   1.653238316661656e+000
2000-01-01T15:10:56.556   5.657510565200438e+003  -4.268459938372084e+003   4.788964483126715e+002   4.481313935100261e+000   5.843013618675998e+000   1.609717342309117e+000
2000-01-01T15:12:34.064   6.063855087776874e+003  -3.677191710370301e+003   6.330479117825852e+002   3.846627284475975e+000   6.273310961521081e+000   1.549364244286070e+000
2000-01-01T15:14:11.922   6.407617169767629e+003  -3.044972013986869e+003   7.810493965280217e+002   3.173747129866536e+000   6.636049720205368e+000   1.472883596515693e+000
2000-01-01T15:15:50.147   6.684992713062293e+003  -2.378223312290225e+003   9.213355979624535e+002   2.469940809411055e+000   6.927629759110339e+000   1.381146130938399e+000
2000-01-01T15:17:28.752   6.892825889256885e+003  -1.683772997629667e+003   1.052407737762919e+003   1.742752316498428e+000   7.145225756485162e+000   1.275177940281344e+000
2000-01-01T15:19:07.745   7.028651689143907e+003  -9.687981814470678e+002   1.172848891140417e+003   9.999259849429206e-001   7.286806337990524e+000   1.156148802325157e+000
2000-01-01T15:19:28.000   7.047357321847970e+003  -8.210037612352152e+002   1.196005986196907e+003   8.470864256867849e-001   7.306239087955987e+000   1.130362550626059e+000

